SITRO-AIS-54
1 59777U 24092E   26114.29275068  .00015512  00000-0  46013-3 0  9996
2 59777  97.6496 245.2136 0006672 347.6803  12.4275 15.34896968107472
SITRO-AIS-56
1 59778U 24092F   26114.29361742  .00015899  00000-0  46141-3 0  9992
2 59778  97.6495 245.4816 0006943 347.0627  13.0437 15.35578966107493
RASSVET 1-4
1 59779U 24092G   26114.55686044  .00000137  00000-0  67944-4 0  9991
2 59779  98.6621 233.6745 0011929  11.9441 348.2023 14.31824219101226
RASSVET 1-5
1 59780U 24092H   26114.55677913  .00000126  00000-0  63654-4 0  9990
2 59780  98.6620 233.6675 0012327  13.1467 347.0035 14.31824366101227
RASSVET 1-6
1 59781U 24092J   26114.55536910  .00000140  00000-0  69091-4 0  9999
2 59781  98.6620 233.6712 0012236  13.4720 346.6787 14.31825477101227
SITRO-AIS-55
1 59809U 24092K   26114.34054854  .00014580  00000-0  43535-3 0  9996
2 59809  97.6493 245.0946 0006744 347.4890  12.6184 15.34704210106979
MESAT-1
1 60209U 24125G   26114.49449748  .00038922  00000-0  52101-3 0  9990
2 60209  97.2382 330.9525 0011959  63.0774 297.1702 15.57829274101199
ISTSAT-1
1 60238U 24128D   26114.39288984  .00005612  00000-0  34061-3 0  9992
2 60238  61.9897  36.2353 0045003 120.6888 239.8653 15.10883892 98332
IONOSFERA-M 01
1 61735U 24199A   26114.53491554  .00000027  00000-0  31504-4 0  9993
2 61735  98.7246 348.2540 0000583  19.8981 340.2220 14.22743938120074
IONOSFERA-M 02
1 61736U 24199B   26114.49900623  .00000022  00000-0  29372-4 0  9996
2 61736  98.7245 348.1295 0001912  99.9035 260.2358 14.22746712123198
SITRO-AIS-16
1 61737U 24199C   26114.49899891  .00002247  00000-0  19823-3 0  9991
2 61737  97.3274 317.1748 0005332 238.4269 121.6434 14.97314391123780
SITRO-AIS-15
1 61738U 24199D   26114.55067596  .00001813  00000-0  16077-3 0  9994
2 61738  97.3274 317.2604 0005358 242.5011 117.5667 14.97333605123794
SITRO-AIS-21
1 61739U 24199E   26114.52894345  .00000922  00000-0  89244-4 0  9999
2 61739  97.3293 315.8436 0011114 240.7943 119.2168 14.94907714123738
SITRO-AIS-22
1 61740U 24199F   26114.51877331  .00002022  00000-0  18645-3 0  9995
2 61740  97.3291 316.0088 0011090 240.1122 119.8999 14.95645536123897
SITRO-AIS-24
1 61741U 24199G   26114.51275925  .00002869  00000-0  26106-3 0  9997
2 61741  97.3299 316.0250 0010856 240.7115 119.3023 14.95879481123862
SITRO-AIS-23
1 61742U 24199H   26114.50712227  .00002338  00000-0  21475-3 0  9993
2 61742  97.3290 316.0250 0010973 240.7405 119.2721 14.95671179123741
SITRO-AIS-13
1 61743U 24199J   26114.54884543  .00001824  00000-0  16066-3 0  9998
2 61743  97.3272 317.4021 0005203 243.8808 116.1880 14.97591958123968
CSTP-2.11
1 61744U 24199K   26114.54268897  .00023533  00000-0  43526-3 0  9999
2 61744  97.3062 349.0400 0010408 108.3425 251.8959 15.48985496126059
POLYTECH UNIVERSE-5 (RS70S)
1 61745U 24199L   26114.47350735  .00037457  00000-0  53100-3 0  9994
2 61745  97.3048 350.7781 0008389 107.2838 252.9335 15.56334908129313
COLIBRI-S (RS67S)
1 61746U 24199M   26114.55372162  .00017329  00000-0  36252-3 0  9997
2 61746  97.3077 347.9876 0010802 112.1959 248.0437 15.45467985129129
POLYTECH UNIVERSE-4 (RS71S)
1 61747U 24199N   26114.53894843  .00014937  00000-0  33250-3 0  9998
2 61747  97.3081 347.4083 0011263 111.4320 248.8131 15.43657273129089
SITRO-AIS-44
1 61748U 24199P   26114.50755330  .00052268  00000-0  62250-3 0  9994
2 61748  97.2984 351.8373 0007994 109.0728 251.1396 15.60911843129392
VIZARD-ION (RS68S)
1 61749U 24199Q   26114.47537988  .00027083  00000-0  45817-3 0  9995
2 61749  97.3075 349.7518 0009179 108.8394 251.3854 15.51505971129230
MTUSI-1
1 61750U 24199R   26114.47905343  .00026974  00000-0  45693-3 0  9991
2 61750  97.3043 349.2254 0009457 118.1351 242.0858 15.51465650129213
VLADIVOSTOK-1
1 61751U 24199S   26114.48632620  .00007369  00000-0  21304-3 0  9998
2 61751  97.3076 344.3485 0011207 133.3119 226.9062 15.35863415128893
SITRO-AIS-14
1 61752U 24199T   26114.53253485  .00001343  00000-0  12010-3 0  9993
2 61752  97.3286 317.2804 0004724 243.1260 116.9481 14.97397077127091
HORS-3 (RS81S)
1 61753U 24199U   26114.54868646  .00028169  00000-0  47871-3 0  9994
2 61753  97.3056 349.4481 0009219 114.5246 245.6968 15.51369840129230
HORS-4 (RS82S)
1 61754U 24199V   26114.52196471  .00035319  00000-0  52691-3 0  9994
2 61754  97.3013 350.3224 0008526 110.8468 249.3700 15.54952805129298
SITRO-AIS-43
1 61755U 24199W   26114.53187220  .00050886  00000-0  59792-3 0  9993
2 61755  97.3001 351.9759 0007336 106.0301 254.1765 15.61275977129401
SITRO-AIS-42
1 61756U 24199X   26114.50663903  .00054986  00000-0  63991-3 0  9999
2 61756  97.2995 352.0100 0007798 109.3817 250.8285 15.61505430129405
HORIZON (RS59S)
1 61757U 24199Y   26114.07057365  .00297896  34151-4  10524-2 0  9991
2 61757  97.2909 355.4427 0006054 118.9507 241.2373 15.89033853129582
SITRO-AIS-20
1 61758U 24199Z   26114.52357911  .00002179  00000-0  19065-3 0  9992
2 61758  97.3288 317.4193 0004179 242.5688 117.5111 14.97670957127103
SITRO-AIS-19
1 61759U 24199AA  26114.52611094  .00001874  00000-0  16470-3 0  9996
2 61759  97.3288 317.4190 0004151 245.7850 114.2939 14.97646142127108
SITRO-AIS-41
1 61760U 24199AB  26114.51249532  .00051721  00000-0  62824-3 0  9991
2 61760  97.3022 351.7507 0007318 106.1827 254.0236 15.60403544129384
NORBY-3
1 61761U 24199AC  26114.47094330  .00029395  00000-0  47113-3 0  9997
2 61761  97.3011 349.9346 0008060 107.8992 252.3141 15.53012970129263
ARCTICSAT-1 (RS74S)
1 61762U 24199AD  26114.48315536  .00152306  00000-0  91114-3 0  9992
2 61762  97.2970 354.9048 0006589 102.8066 257.3937 15.77385294129584
SIT-HSE
1 61763U 24199AE  26114.49609289  .00018021  00000-0  32809-3 0  9996
2 61763  97.3053 349.9936 0006767 126.2649 233.9228 15.49526717129267
SIT-2086
1 61764U 24199AF  26114.52845192  .00018933  00000-0  34033-3 0  9999
2 61764  97.3039 350.0755 0008517 102.7813 257.4391 15.49865692126112
HOD-HOD
1 61768U 24199AK  26114.51645850  .00017548  00000-0  34426-3 0  9998
2 61768  97.3048 348.7685 0007553 117.9335 242.2680 15.47374563126032
KOSAR
1 61769U 24199AL  26114.50564338  .00025636  00000-0  44605-3 0  9996
2 61769  97.3030 349.6556 0007082 114.3280 245.8712 15.50741957126098
SITRO-AIS-48
1 61771U 24199AN  26114.51732933  .00035099  00000-0  55172-3 0  9993
2 61771  97.3015 349.2957 0010396 122.3174 237.9088 15.53493471126083
SITRO-AIS-47
1 61773U 24199AQ  26114.51460639  .00035760  00000-0  55129-3 0  9993
2 61773  97.3000 349.4565 0009652 119.5551 240.6666 15.54035482126095
SITRO-AIS-46
1 61774U 24199AR  26114.49234144  .00038311  00000-0  56387-3 0  9993
2 61774  97.2975 349.7464 0009505 122.4606 237.7568 15.55296880126111
CSTP-2.2
1 61775U 24199AS  26114.47338875  .00012793  00000-0  29348-3 0  9991
2 61775  97.3068 346.6182 0017168 112.1808 248.1263 15.42704052125885
SITRO-AIS-40
1 61776U 24199AT  26114.47905623  .00037637  00000-0  54953-3 0  9997
2 61776  97.2984 349.7714 0009320 121.1395 239.0775 15.55521867129267
CSTP-2.1
1 61777U 24199AU  26114.53915456  .00014395  00000-0  31962-3 0  9991
2 61777  97.3070 346.8277 0016977 111.4567 248.8494 15.43655502125900
SITRO-AIS-39
1 61778U 24199AV  26114.50205753  .00034974  00000-0  55298-3 0  9994
2 61778  97.2987 349.1540 0009659 120.0732 240.1481 15.53339741126070
ALTAIR (RS65S)
1 61779U 24199AW  26114.51382625  .00006820  00000-0  19646-3 0  9996
2 61779  97.3106 344.2380 0014478 133.7878 226.4566 15.35965292128877
SITRO-AIS-37
1 61780U 24199AX  26114.47534911  .00034116  00000-0  52320-3 0  9995
2 61780  97.3018 349.4094 0010287 121.2720 238.9542 15.54182198126082
TUSUR GO (RS78S)
1 61782U 24199AZ  26114.08633752  .00408824  67748-4  11124-2 0  9990
2 61782  97.2865 354.5836 0006279 132.9841 227.1962 15.94123386126391
SAMSAT-IONOSPHERE (RS75S)
1 61784U 24199BB  26114.52932059  .00032534  00000-0  51790-3 0  9992
2 61784  97.3037 349.3165 0011445 116.2129 244.0303 15.53144027129229
RTU MIREA-1 (RS51S)
1 61785U 24199BC  26114.52639654  .00039026  00000-0  56666-3 0  9998
2 61785  97.3027 349.9114 0011536 113.9163 246.3301 15.55638181126111
SITRO-AIS-38
1 61786U 24199BD  26114.52001170  .00013674  00000-0  27809-3 0  9993
2 61786  97.3028 348.2847 0011461 126.1832 234.0479 15.46340991126012
2024-199BE (? SWSU-60)
1 61787U 24199BE  26114.50569174  .00007581  00000-0  22126-3 0  9992
2 61787  97.3088 343.9048 0015004 134.7034 225.5434 15.35503987128854
SITRO-AIS-45
1 61788U 24199BF  26114.52818644  .00033668  00000-0  52791-3 0  9990
2 61788  97.2983 349.2418 0009659 119.7222 240.4994 15.53578919126064
SITRO-AIS-17
1 61789U 24199BG  26114.51535374  .00002826  00000-0  24587-3 0  9990
2 61789  97.3287 317.4579 0004152 247.9014 112.1768 14.97675412124003
SITRO-AIS-18
1 61790U 24199BH  26114.52711948  .00001751  00000-0  15425-3 0  9993
2 61790  97.3288 317.4215 0004179 248.5809 111.4968 14.97634868124005
INNOCUBE (TUBSAT-31)
1 62616U 25009H   26114.18965886  .00006004  00000-0  23821-3 0  9991
2 62616  97.3904 194.7783 0006888 151.4896 208.6720 15.25714497 70588
OTP-2
1 63235U 25052AB  26114.24118284  .00005768  00000-0  24640-3 0  9992
2 63235  97.3924   7.4877 0006523   9.8679 350.2685 15.23238127 61654
IONOSFERA-M 03
1 64876U 25155A   26114.46864516  .00000046  00000-0  40669-4 0  9992
2 64876  98.5988  77.7387 0002042  48.0546 312.0805 14.21476628 38779
IONOSFERA-M 04
1 64877U 25155B   26114.50356403  .00000057  00000-0  45672-4 0  9990
2 64877  98.5988  77.6907 0001458  56.6393 303.4924 14.21478630 38773
INNOSAT16 (RS92S7)
1 64878U 25155C   26114.53044119  .00005416  00000-0  22067-3 0  9998
2 64878  97.4528  81.8683 0011267  25.4605 334.7185 15.24835005 72499
GEOSCAN-6 (RS92S6)
1 64879U 25155D   26114.47351887  .00009039  00000-0  32253-3 0  9998
2 64879  97.4524  82.8746 0008500  23.6716 336.4913 15.29074659 72556
GEOSCAN 1 (RS92S1)
1 64880U 25155E   26114.49533486  .00009714  00000-0  34107-3 0  9999
2 64880  97.4521  83.0015 0008418  24.0939 336.0693 15.29581346 72565
